KAZSAT-3                
1 39728U 14023B   23298.15518192  .00000054  00000+0  00000+0 0  9992
2 39728   0.0124 228.7792 0000667  38.1865 240.7073  1.00271686 32767
KAZEOSAT 1              
1 39731U 14024A   23299.19823658  .00000324  00000+0  11191-3 0  9995
2 39731  98.4194  14.2193 0001080  88.1185 272.0128 14.42002553499538
NAVSTAR 70 (USA 251)    
1 39741U 14026A   23298.71591743 -.00000093  00000+0  00000+0 0  9999
2 39741  56.7012   8.9981 0030757 309.4864  50.2891  2.00553407 69172
COSMOS 2496             
1 39761U 14028A   23298.94000018  .00000045  00000+0  25050-3 0  9990
2 39761  82.4491 353.3375 0019775  26.8103 333.3994 12.42882229427607
COSMOS 2497             
1 39762U 14028B   23298.91156953  .00000032  00000+0  16201-3 0  9992
2 39762  82.4540 354.6592 0020365  20.2608 339.9275 12.42895218427609
COSMOS 2498             
1 39763U 14028C   23298.86987067  .00000041  00000+0  22635-3 0  9993
2 39763  82.4501 353.5688 0020876  20.6771 339.5148 12.42926820427624
ALOS-2                  
1 39766U 14029A   23299.22129495  .00002763  00000+0  37665-3 0  9993
2 39766  97.9232  34.2359 0001422  99.1899 260.9473 14.79477983508930
UNIFORM 1               
1 39767U 14029B   23299.20017506  .00003135  00000+0  35542-3 0  9997
2 39767  97.8286  29.1283 0004354 265.7394  94.3325 14.87079011510371
SOCRATES                
1 39768U 14029C   23299.19280737  .00002253  00000+0  25599-3 0  9995
2 39768  97.8743  37.2680 0005506 294.3809  65.6832 14.87269758510586
RISING 2                
1 39769U 14029D   23299.20565680  .00001555  00000+0  19322-3 0  9992
2 39769  97.7622  14.6882 0002875 256.3341 103.7553 14.83955794509805
SPROUT                  
1 39770U 14029E   23298.97270808  .00033426  00000+0  20639-2 0  9996
2 39770  97.9997  70.8399 0006251 241.3484 118.7116 15.09798003511839
EUTELSAT 3B             
1 39773U 14030A   23298.57398322  .00000014  00000+0  00000+0 0  9993
2 39773   0.0680  18.3106 0005993 193.2341  31.9011  1.00271331 34384
COSMOS 2500 [GLONASS-M] 
1 40001U 14032A   23297.84527179 -.00000046  00000+0  00000+0 0  9990
2 40001  65.6910 346.3976 0008585 212.6777 147.3381  2.13105843 72867
KAZEOSAT 2              
1 40010U 14033A   23299.19981757  .00000847  00000+0  11278-3 0  9998
2 40010  97.6503 169.9488 0010883 256.5552 103.4449 14.82084672505863
HODOYOSHI-4             
1 40011U 14033B   23299.20294754  .00001773  00000+0  22257-3 0  9993
2 40011  97.6064 155.3003 0024331 252.2206 107.6353 14.83156715505522
UNISAT-6                
1 40012U 14033C   23298.92871402  .00002648  00000+0  36779-3 0  9999
2 40012  97.6819 106.6992 0054657 352.7724   7.2693 14.77665549503075
DEIMOS-2                
1 40013U 14033D   23299.17298563  .00002602  00000+0  29399-3 0  9999
2 40013  97.7049 187.7587 0000920  50.3571 309.7726 14.87334010506816
BUGSAT-1 (TITA)         
1 40014U 14033E   23298.89633604  .00005008  00000+0  39381-3 0  9992
2 40014  98.1468 323.8220 0034365 196.5637 163.4465 15.00890527510322
HODOYOSHI-3             
1 40015U 14033F   23298.50350437  .00001274  00000+0  17298-3 0  9995
2 40015  97.6000 131.7456 0034594 287.4590  72.2842 14.80083184504507
SAUDISAT 4              
1 40016U 14033G   23298.47420689  .00000869  00000+0  12974-3 0  9994
2 40016  97.6479 111.3667 0046806 336.2121  23.6926 14.76462864503411
APRIZESAT 9             
1 40018U 14033J   23299.19413627  .00000931  00000+0  15283-3 0  9996
2 40018  97.7717  89.9762 0071045  62.2830 298.5561 14.71234343501646
APRIZESAT 10            
1 40019U 14033K   23298.99768952  .00001045  00000+0  18027-3 0  9994
2 40019  97.8356  80.7965 0083769 114.8210 246.1737 14.68210420500664
BRITE-CA1 (TORONTO)     
1 40020U 14033L   23299.14706010  .00001750  00000+0  29400-3 0  9991
2 40020  97.8450  80.2267 0085712 121.9600 238.9975 14.68440743500478
DUCHIFAT-1              
1 40021U 14033M   23298.38368575  .00008587  00000+0  68555-3 0  9996
2 40021  98.0702 266.8296 0011463 171.1033 189.0395 15.00487967508695
NANOSATC-BR1            
1 40024U 14033Q   23298.40883410  .00006603  00000+0  56363-3 0  9993
2 40024  98.0425 257.0685 0009513 201.9650 158.1164 14.98014119507897
QB50P1                  
1 40025U 14033R   23298.41585506  .00006452  00000+0  58703-3 0  9992
2 40025  98.0104 247.7126 0009432 212.6391 147.4247 14.95526143507591
DTUSAT-2                
1 40030U 14033W   23298.37180770  .00004959  00000+0  46326-3 0  9995
2 40030  97.9772 240.7597 0009340 212.1054 147.9598 14.94596488507435
QB50P2                  
1 40032U 14033Y   23298.41360300  .00004620  00000+0  43173-3 0  9993
2 40032  97.9781 240.8188 0008948 211.7915 148.2765 14.94624427507411
PERSEUS-M2              
1 40037U 14033AD  23299.07335213  .00002429  00000+0  26370-3 0  9991
2 40037  97.9102 224.5141 0012037 247.8269 112.1671 14.89036220507325
PERSEUS-M1              
1 40039U 14033AF  23298.38413875  .00002147  00000+0  23561-3 0  9993
2 40039  97.8937 220.5138 0011870 249.9223 110.0716 14.88723291506585
POLYITAN-1              
1 40042U 14033AJ  23298.46025502  .00006595  00000+0  57936-3 0  9996
2 40042  98.0212 250.0531 0011451 206.2423 153.8219 14.96876878507512
TIGRISAT                
1 40043U 14033AK  23298.40957671  .00001968  00000+0  27776-3 0  9990
2 40043  97.6739 106.9891 0056890 352.0306   7.9995 14.77195720502633
LEMUR-1                 
1 40044U 14033AL  23298.44310793  .00002012  00000+0  28473-3 0  9999
2 40044  97.6776 106.3472 0056096 355.0899   4.9754 14.77073697502483
AEROCUBE 6A             
1 40045U 14033AM  23298.97794615  .00004528  00000+0  59029-3 0  9992
2 40045  97.6589 117.5678 0053084 333.0149  26.8305 14.80053734503206
AEROCUBE 6B             
1 40046U 14033AN  23298.47012377  .00003906  00000+0  50134-3 0  9993
2 40046  97.6546 115.6142 0051700 331.2132  28.6230 14.80837364502924
SPOT 7                  
1 40053U 14034A   23299.19028871  .00000723  00000+0  16414-3 0  9995
2 40053  98.1903   4.6478 0001273  78.0063 282.1279 14.58890548496349
CANX-4                  
1 40055U 14034C   23299.06337557  .00001730  00000+0  25310-3 0  9991
2 40055  98.3953 119.1888 0012919 217.4716 142.5593 14.77004624501863
CANX-5                  
1 40056U 14034D   23298.46007427  .00001575  00000+0  23120-3 0  9999
2 40056  98.3951 118.5536 0012882 219.4848 140.5423 14.77008083492550
OCO 2                   
1 40059U 14035A   23298.86705731  .00000842  00000+0  19695-3 0  9998
2 40059  98.2122 237.9528 0001160 103.4421 256.6907 14.57128171495485
GONETS-M 8              
1 40061U 14036A   23298.94517094  .00000022  00000+0  84481-4 0  9990
2 40061  82.5137 187.1321 0030303  93.8743 266.5802 12.42934834422530
GONETS-M 9              
1 40062U 14036B   23298.96062575  .00000032  00000+0  15775-3 0  9992
2 40062  82.5136 187.1706 0023500  99.7907 260.5828 12.42902863422545
GONETS-M 10             
1 40063U 14036C   23298.94066916  .00000028  00000+0  12975-3 0  9998
2 40063  82.5140 187.1584 0022382  86.7109 273.6531 12.42902879422332
METEOR-M 2              
1 40069U 14037A   23299.18643316  .00000153  00000+0  89864-4 0  9998
2 40069  98.4287 299.1064 0005134 332.5734  27.5172 14.20831369482252
DX1                     
1 40071U 14037C   23299.20144086  .00001985  00000+0  24819-3 0  9996
2 40071  98.3432 196.1140 0008445 153.0575 207.1077 14.83526634502780
SKYSAT-B                
1 40072U 14037D   23298.58417051  .00001483  00000+0  18949-3 0  9992
2 40072  98.3430 195.0168 0006564 151.7276 208.4293 14.83030111502593
UKUBE-1                 
1 40074U 14037F   23299.02566454  .00005450  00000+0  57368-3 0  9992
2 40074  98.3354 210.4294 0005455 110.5089 249.6713 14.89824194503723
AISSAT 2                
1 40075U 14037G   23299.17827394  .00002325  00000+0  27829-3 0  9999
2 40075  98.3374 202.1792 0005862 150.6771 209.4772 14.85175676503169
TECHDEMOSAT-1 (TDS-1)   
1 40076U 14037H   23298.61679617  .00005768  00000+0  60177-3 0  9998
2 40076  98.3306 202.6536 0004362 269.3573  90.7144 14.90165909503313
O3B FM3                 
1 40079U 14038A   23298.23423799 -.00000019  00000+0  00000+0 0  9998
2 40079   0.0531  10.5152 0000573 263.2717  86.2119  5.00116621164727
O3B FM7                 
1 40080U 14038B   23298.38079674 -.00000019  00000+0  00000+0 0  9995
2 40080   0.0550  14.8533 0004341 188.1855 156.9471  5.00115828169566
O3B FM6                 
1 40081U 14038C   23298.60738383 -.00000019  00000+0  00000+0 0  9990
2 40081   0.0541  10.0748 0002631 202.4106 147.5038  5.00115139169528
O3B FM8                 
1 40082U 14038D   23297.26168185 -.00000019  00000+0  00000+0 0  9999
2 40082   0.0543  11.0693 0002631 203.8435 145.0755  5.00115215169569
ORBCOMM FM109           
1 40086U 14040A   23298.43584359  .00000865  00000+0  23229-3 0  9991
2 40086  47.0048 328.5341 0001023  49.4809 310.6164 14.56018947493450
ORBCOMM FM107           
1 40087U 14040B   23298.47006694  .00000989  00000+0  26014-3 0  9999
2 40087  47.0067 329.3079 0001390 347.2620  12.8230 14.56021148493537
ORBCOMM FM103           
1 40091U 14040F   23298.14825539  .00000880  00000+0  23579-3 0  9998
2 40091  47.0069 331.1345 0001447  14.0604 346.0320 14.55999575476456
NAVSTAR 71 (USA 256)    
1 40105U 14045A   23297.80204308  .00000090  00000+0  00000+0 0  9999
2 40105  54.8329 127.0550 0027382 114.7446 245.6090  2.00550138 66699
ASIASAT 8 (AMOS-7)      
1 40107U 14046A   23298.57259086 -.00000039  00000+0  00000+0 0  9994
2 40107   0.0506  63.7266 0002094 157.0087  15.2332  1.00271523 92466
YAOGAN 20A              
1 40109U 14047A   23298.59785132 -.00000001  00000+0  11446-3 0  9994
2 40109  63.3891 346.4957 0304970  10.0844 350.6116 13.45262970452534
YAOGAN 20B              
1 40110U 14047B   23298.89615493 -.00000027  00000+0  81693-4 0  9991
2 40110  63.3891 346.5952 0304861  10.1131 350.5845 13.45261964452609
